TDRS 3                  
1 19548U 88091B   18014.94665706 -.00000300  00000-0  00000-0 0  9994
2 19548  14.4452   5.8170 0038922 310.5320  76.3501  1.00280604 94576
SKYNET 4C               
1 20776U 90079A   18013.63205886  .00000124  00000-0  00000-0 0  9995
2 20776  13.9040  14.0274 0002753 285.7034  74.2901  1.00273940100072
TDRS 5                  
1 21639U 91054B   18014.71015199  .00000084  00000-0  00000-0 0  9999
2 21639  14.4950  19.2029 0024737 337.8071 204.9981  1.00273772 96873
TDRS 6                  
1 22314U 93003B   18014.35250817 -.00000296  00000-0  00000-0 0  9990
2 22314  14.0434  22.1788 0009488 297.5226 234.8984  1.00265089 91537
ASTRA 1D                
1 23331U 94070A   18014.37553201 -.00000268  00000-0  00000-0 0  9999
2 23331   7.8749  47.8018 0003694 248.1043 240.0318  1.00270841 85320
BRASILSAT B2            
1 23536U 95016A   18014.50677170 -.00000281  00000-0  00000-0 0  9999
2 23536   7.5022  49.6864 0002325 267.2871 271.3848  1.00273330 83473
AMSC 1                  
1 23553U 95019A   18014.07738892 -.00000118  00000-0  00000-0 0  9991
2 23553  10.3369  38.0584 0003731 247.7957 112.1917  1.00272391 83339
TDRS 7                  
1 23613U 95035B   18014.63942001 -.00000203  00000-0  00000-0 0  9992
2 23613  15.0383  12.8964 0030501 353.8768  62.3242  1.00272380 82312
INMARSAT 3-F1           
1 23839U 96020A   18014.76504537  .00000006  00000-0  00000-0 0  9999
2 23839   4.3837  66.5474 0006045 231.2775 156.2340  1.00270810 79484
ASTRA 1F                
1 23842U 96021A   18014.86504299  .00000140  00000-0  00000-0 0  9999
2 23842   0.0394  44.3130 0003637 245.7925 179.8551  1.00270997 21515
MSAT M1                 
1 23846U 96022A   18014.11447689 -.00000087  00000-0  00000-0 0  9992
2 23846   8.0616  47.2841 0005840 249.2784 110.6675  1.00271623 79571
INMARSAT 3-F2           
1 24307U 96053A   18014.94073677 -.00000126  00000-0  00000-0 0  9996
2 24307   3.0575  76.6903 0007900 221.8140 139.0118  1.00271636 78164
AMC-1 (GE-1)            
1 24315U 96054A   18014.27993137  .00000067  00000-0  00000-0 0  9997
2 24315   2.0105  84.0437 0002338 224.5244 134.9833  1.00272015 15487
AFRICASAT-2 (MEASAT-2)  
1 24653U 96063B   18015.53039362 -.00000228  00000-0  00000+0 0  9992
2 24653   7.8012  48.2047 0011251 209.0016 196.6647  1.00272000 77525
INMARSAT 3-F3           
1 24674U 96070A   18014.65434021  .00000035  00000-0  00000-0 0  9992
2 24674   3.8457  70.7717 0005717 223.2121 233.7099  1.00272099 77135
AMC-2 (GE-2)            
1 24713U 97002A   18014.50810814 -.00000213  00000-0  00000+0 0  9992
2 24713   4.7253  64.8749 0005035 236.4886 270.6002  1.00273406 27489
INTELSAT 26 (IS-26)     
1 24732U 97007A   18014.74845803 -.00000013  00000-0  00000-0 0  9999
2 24732   7.7791  48.5520 0003036 242.9800 157.8441  1.00273232 76443
GALAXY 25 (G-25)        
1 24812U 97026A   18014.94097646 -.00000160  00000-0  00000+0 0  9997
2 24812   0.0182  24.3622 0003447 272.7091  62.8935  1.00268988 75529
INTELSAT 5 (IS-5)       
1 24916U 97046A   18014.44219656 -.00000145  00000-0  00000-0 0  9990
2 24916   3.9577  70.0817 0004190 208.5289 151.3026  1.00271339 74775
AMC-3 (GE-3)            
1 24936U 97050A   18015.45844388 -.00000259  00000-0  00000+0 0  9990
2 24936   0.8313  91.5210 0002325 207.3550 269.0001  1.00272627 74616
NSS-5                   
1 24957U 97053A   18015.10711196  .00000106  00000-0  00000+0 0  9998
2 24957   4.2459  68.2744 0003222 237.3143 257.9705  1.00274793 74409
ASTRA 1G                
1 25071U 97076A   18014.86368670  .00000106  00000-0  00000-0 0  9999
2 25071   2.7555  77.6206 0003029 219.9888 178.6413  1.00272323 73727
BRASILSAT B3            
1 25152U 98006A   18015.04428508 -.00000285  00000-0  00000+0 0  9999
2 25152   4.4272  67.2600 0002500 222.1757 137.7043  1.00269384 73097
INMARSAT 3-F5           
1 25153U 98006B   18015.21259576 -.00000288  00000-0  00000+0 0  9999
2 25153   2.9981  73.7338 0004908 221.7498 201.6647  1.00272282 73057
NSS-806                 
1 25239U 98014A   18014.79632667 -.00000277  00000-0  00000+0 0  9999
2 25239   0.0507  23.2223 0004276 273.9670  56.1819  1.00271151 72818
CHINASAT 5A (ZX 5A)     
1 25354U 98033A   18015.55295405 -.00000353  00000-0  00000+0 0  9993
2 25354   1.6932  85.9411 0006011 195.2209 158.3750  1.00270501 76408
THOR III                
1 25358U 98035A   18014.85533720 -.00000045  00000-0  00000-0 0  9995
2 25358   5.7793  57.9517 0002435 248.1783 111.7638  1.00273393 72012
INTELSAT 805 (IS-805)   
1 25371U 98037A   18014.63131813 -.00000030  00000-0  00000-0 0  9999
2 25371   0.4646  93.9700 0003144 214.9416 201.3894  1.00273225 71712
ASTRA 2A                
1 25462U 98050A   18015.53347919 -.00000357  00000-0  00000+0 0  9992
2 25462   0.0530 207.6073 0002030  95.3740 117.4592  1.00269819 70919
JCSAT-4A                
1 25630U 99006A   18014.83988392 -.00000204  00000-0  00000-0 0  9991
2 25630   2.7300  79.0022 0006285 212.2569 275.3279  1.00272346 19772
SKYNET 4E               
1 25639U 99009B   18014.19763806 -.00000032  00000-0  00000+0 0  9991
2 25639  10.3083  27.0061 0003454 266.6731 249.9238  1.00274815 69173
ASIASAT 3S              
1 25657U 99013A   18015.54768215 -.00000237  00000-0  00000+0 0  9992
2 25657   2.9425  77.2582 0004089 224.2439 156.6247  1.00270572 68994
NIMIQ 1                 
1 25740U 99027A   18014.81087875 -.00000196  00000-0  00000-0 0  9990
2 25740   0.0428  83.9561 0004555 218.2845  17.3362  1.00270299 68247
ASTRA 1H                
1 25785U 99033A   18014.36416966 -.00000281  00000-0  00000+0 0  9997
2 25785   4.2297  68.4310 0002335 304.6964 190.0572  1.00030825 67949
ABS-7                   
1 25894U 99046A   18015.03070139 -.00000361  00000-0  00000+0 0  9994
2 25894   0.0181  69.5304 0001563 280.7621 251.3230  1.00272069 66306
ABS-6                   
1 25924U 99053A   18015.23988824 -.00000117  00000-0  00000+0 0  9996
2 25924   0.0289 317.0703 0001192 141.3810 261.5457  1.00277749 67049
TELSTAR 12 (ORION 2)    
1 25949U 99059A   18015.07915334 -.00000062  00000-0  00000+0 0  9996
2 25949   1.3838  88.0055 0002822 213.8306  91.9116  1.00272511 66690
AMC-4 (GE-4)            
1 25954U 99060A   18015.05672763  .00000089  00000-0  00000+0 0  9996
2 25954   0.0291 304.9622 0002262 350.9089  64.0889  1.00272187 66657
GALAXY 11 (G-11)        
1 26038U 99071A   18014.90462559  .00000138  00000-0  00000-0 0  9991
2 26038   0.1203  95.7802 0000742 297.0727  91.9737  1.00271915 66278
SUPERBIRD-B2            
1 26095U 00012A   18014.87979727 -.00000093  00000-0  00000-0 0  9998
2 26095   0.8529  92.4935 0002809 204.5909 295.8702  1.00271697 14357
ASIASTAR                
1 26107U 00016A   18014.97185215 -.00000333  00000-0  00000+0 0  9994
2 26107   2.1140  81.4416 0003845 216.1452 271.6302  1.00270327 65319
EUTELSAT 16C            
1 26243U 00019A   18014.89351535  .00000088  00000-0  00000-0 0  9996
2 26243   4.6638  65.2910 0003597 231.8690 153.3117  1.00269275 64915
EUTELSAT 80A            
1 26369U 00028A   18014.94073677 -.00000102  00000-0  00000-0 0  9997
2 26369   1.4592  85.2854 0007186 242.7109 112.2814  1.00272162 64592
TDRS 8                  
1 26388U 00034A   18014.58592396 -.00000233  00000-0  00000-0 0  9994
2 26388   7.8403  54.0862 0010331 253.0260 106.8587  1.00278360 64330
ECHOSTAR 6              
1 26402U 00038A   18014.62954723 -.00000150  00000-0  00000-0 0  9994
2 26402   4.5827  66.0471 0003167 233.3037 305.0998  1.00272405 64100
INTELSAT 9 (IS-9)       
1 26451U 00043A   18014.87951587 -.00000218  00000-0  00000+0 0  9990
2 26451   3.9452  70.3037 0002611 232.5519  98.5409  1.00272989 64003
BRASILSAT B4            
1 26469U 00046A   18014.17153189 -.00000171  00000-0  00000-0 0  9996
2 26469   2.0946  83.8214 0002875 223.9986 135.5258  1.00272934 64127
NILESAT 102             
1 26470U 00046B   18015.19470431 -.00000059  00000-0  00000+0 0  9997
2 26470   2.1233  82.7434 0006036 218.0060 236.9687  1.00273801 63802
ASTRA 2B                
1 26494U 00054A   18015.17271480 -.00000154  00000-0  00000+0 0  9999
2 26494   2.6465  78.2885 0004822 226.0030 212.8375  1.00272001 63401
AMC-7 (GE-7)            
1 26495U 00054B   18014.05947147  .00000089  00000-0  00000+0 0  9992
2 26495   0.0332  41.6838 0002658 237.8158  80.4704  1.00265999 63419
NSS-11 (AAP-1)          
1 26554U 00059A   18015.23500597  .00000045  00000-0  00000+0 0  9990
2 26554   0.0234 323.9131 0009136 330.2033  77.5370  1.00543380 63347
N-SAT-110 (JCSAT-110)   
1 26559U 00060A   18014.91054934 -.00000350  00000-0  00000-0 0  9991
2 26559   0.0100  55.8422 0001520  42.4076  93.9120  1.00272945 10440
AMC-6 (GE-6)            
1 26580U 00067A   18015.35740407 -.00000214  00000-0  00000+0 0  9996
2 26580   0.0290 311.3085 0002250 359.2313 209.8568  1.00273281 63157
INTELSAT 12 (IS-12)     
1 26590U 00068A   18014.86504299  .00000137  00000-0  00000-0 0  9994
2 26590   0.9374  91.6884 0004739 225.4357 153.5369  1.00273354 20889
INTELSAT 1R (IS-1R)     
1 26608U 00072A   18014.87660978 -.00000137  00000-0  00000-0 0  9998
2 26608   0.7441  93.4818 0000590 172.8995 320.5613  1.00271281 62817
ANIK F1                 
1 26624U 00076A   18013.98295569 -.00000073  00000-0  00000-0 0  9990
2 26624   0.0179 129.2861 0000466 147.5713  83.1206  1.00271018 12319
ASTRA 2D                
1 26638U 00081A   18014.70872109  .00000045  00000-0  00000+0 0  9990
2 26638   4.0570  69.0913 0002103 226.7965 133.0549  1.00274265 62554
AMC-8 (GE-8)            
1 26639U 00081B   18014.74698774  .00000105  00000-0  00000+0 0  9996
2 26639   0.0156  25.6413 0003107 267.6895 310.7347  1.00274538 62435
SKYNET 4F               
1 26695U 01005B   18014.36365410 -.00000250  00000-0  00000-0 0  9994
2 26695   9.1298  35.1825 0002500 262.4339 273.0959  1.00274394 62046
